CCSDS_OMM_VERS = 2.0
CREATION_DATE  = 
ORIGINATOR     = 

OBJECT_NAME    = STARLINK-36808
OBJECT_ID      = 2026-035C
CENTER_NAME    = EARTH
REF_FRAME      = TEME
TIME_SYSTEM    = UTC
MEAN_ELEMENT_THEORY = SGP/SGP4

EPOCH          = 2026-03-17T19:35:53.201472
MEAN_MOTION    = 15.80887109
ECCENTRICITY   = .00011103
INCLINATION    = 97.2865
RA_OF_ASC_NODE = 9.6236
ARG_OF_PERICENTER = 152.7389
MEAN_ANOMALY   = 207.3938

EPHEMERIS_TYPE = 0
CLASSIFICATION_TYPE = U
NORAD_CAT_ID   = 67881
ELEMENT_SET_NO = 999
REV_AT_EPOCH   = 512
BSTAR          = .14626712E-2
MEAN_MOTION_DOT = .290505E-2
MEAN_MOTION_DDOT = 0

CCSDS_OMM_VERS = 2.0
CREATION_DATE  = 
ORIGINATOR     = 

OBJECT_NAME    = STARLINK-36817
OBJECT_ID      = 2026-035D
CENTER_NAME    = EARTH
REF_FRAME      = TEME
TIME_SYSTEM    = UTC
MEAN_ELEMENT_THEORY = SGP/SGP4

EPOCH          = 2026-03-17T19:32:38.736672
MEAN_MOTION    = 15.80883180
ECCENTRICITY   = .0001901
INCLINATION    = 97.2893
RA_OF_ASC_NODE = 9.6262
ARG_OF_PERICENTER = 130.5188
MEAN_ANOMALY   = 229.6246

EPHEMERIS_TYPE = 0
CLASSIFICATION_TYPE = U
NORAD_CAT_ID   = 67882
ELEMENT_SET_NO = 999
REV_AT_EPOCH   = 512
BSTAR          = .157739E-2
MEAN_MOTION_DOT = .314102E-2
MEAN_MOTION_DDOT = 0

CCSDS_OMM_VERS = 2.0
CREATION_DATE  = 
ORIGINATOR     = 

OBJECT_NAME    = STARLINK-36856
OBJECT_ID      = 2026-035E
CENTER_NAME    = EARTH
REF_FRAME      = TEME
TIME_SYSTEM    = UTC
MEAN_ELEMENT_THEORY = SGP/SGP4

EPOCH          = 2026-03-17T19:33:43.090848
MEAN_MOTION    = 15.80911368
ECCENTRICITY   = .00015333
INCLINATION    = 97.2884
RA_OF_ASC_NODE = 9.6252
ARG_OF_PERICENTER = 126.4228
MEAN_ANOMALY   = 233.7182

EPHEMERIS_TYPE = 0
CLASSIFICATION_TYPE = U
NORAD_CAT_ID   = 67883
ELEMENT_SET_NO = 999
REV_AT_EPOCH   = 512
BSTAR          = .1196035E-2
MEAN_MOTION_DOT = .236296E-2
MEAN_MOTION_DDOT = 0

CCSDS_OMM_VERS = 2.0
CREATION_DATE  = 
ORIGINATOR     = 

OBJECT_NAME    = STARLINK-36842
OBJECT_ID      = 2026-035F
CENTER_NAME    = EARTH
REF_FRAME      = TEME
TIME_SYSTEM    = UTC
MEAN_ELEMENT_THEORY = SGP/SGP4

EPOCH          = 2026-03-17T22:00:03.000096
MEAN_MOTION    = 15.75179981
ECCENTRICITY   = .00012692
INCLINATION    = 97.2866
RA_OF_ASC_NODE = 9.7146
ARG_OF_PERICENTER = 98.5274
MEAN_ANOMALY   = 64.8881

EPHEMERIS_TYPE = 0
CLASSIFICATION_TYPE = U
NORAD_CAT_ID   = 67884
ELEMENT_SET_NO = 999
REV_AT_EPOCH   = 508
BSTAR          = -.76902642E-3
MEAN_MOTION_DOT = -.113278E-2
MEAN_MOTION_DDOT = 0

CCSDS_OMM_VERS = 2.0
CREATION_DATE  = 
ORIGINATOR     = 

OBJECT_NAME    = STARLINK-36826
OBJECT_ID      = 2026-035G
CENTER_NAME    = EARTH
REF_FRAME      = TEME
TIME_SYSTEM    = UTC
MEAN_ELEMENT_THEORY = SGP/SGP4

EPOCH          = 2026-03-17T22:00:03.000096
MEAN_MOTION    = 15.75183972
ECCENTRICITY   = .00009824
INCLINATION    = 97.2855
RA_OF_ASC_NODE = 9.7329
ARG_OF_PERICENTER = 93.2090
MEAN_ANOMALY   = 120.0784

EPHEMERIS_TYPE = 0
CLASSIFICATION_TYPE = U
NORAD_CAT_ID   = 67885
ELEMENT_SET_NO = 999
REV_AT_EPOCH   = 508
BSTAR          = -.13585463E-3
MEAN_MOTION_DOT = -.20339E-3
MEAN_MOTION_DDOT = 0

CCSDS_OMM_VERS = 2.0
CREATION_DATE  = 
ORIGINATOR     = 

OBJECT_NAME    = STARLINK-36390
OBJECT_ID      = 2026-035H
CENTER_NAME    = EARTH
REF_FRAME      = TEME
TIME_SYSTEM    = UTC
MEAN_ELEMENT_THEORY = SGP/SGP4

EPOCH          = 2026-03-17T22:00:03.000096
MEAN_MOTION    = 15.75271405
ECCENTRICITY   = .00015224
INCLINATION    = 97.2861
RA_OF_ASC_NODE = 9.7171
ARG_OF_PERICENTER = 105.7581
MEAN_ANOMALY   = 69.5068

EPHEMERIS_TYPE = 0
CLASSIFICATION_TYPE = U
NORAD_CAT_ID   = 67886
ELEMENT_SET_NO = 999
REV_AT_EPOCH   = 513
BSTAR          = -.12199336E-2
MEAN_MOTION_DOT = -.178971E-2
MEAN_MOTION_DDOT = 0

CCSDS_OMM_VERS = 2.0
CREATION_DATE  = 
ORIGINATOR     = 

OBJECT_NAME    = STARLINK-36368
OBJECT_ID      = 2026-035J
CENTER_NAME    = EARTH
REF_FRAME      = TEME
TIME_SYSTEM    = UTC
MEAN_ELEMENT_THEORY = SGP/SGP4

EPOCH          = 2026-03-17T19:28:18.858432
MEAN_MOTION    = 15.80869985
ECCENTRICITY   = .000136
INCLINATION    = 97.2895
RA_OF_ASC_NODE = 9.6289
ARG_OF_PERICENTER = 73.3034
MEAN_ANOMALY   = 286.8384

EPHEMERIS_TYPE = 0
CLASSIFICATION_TYPE = U
NORAD_CAT_ID   = 67887
ELEMENT_SET_NO = 999
REV_AT_EPOCH   = 512
BSTAR          = .65002148E-3
MEAN_MOTION_DOT = .1265E-2
MEAN_MOTION_DDOT = 0

CCSDS_OMM_VERS = 2.0
CREATION_DATE  = 
ORIGINATOR     = 

OBJECT_NAME    = STARLINK-36801
OBJECT_ID      = 2026-035K
CENTER_NAME    = EARTH
REF_FRAME      = TEME
TIME_SYSTEM    = UTC
MEAN_ELEMENT_THEORY = SGP/SGP4

EPOCH          = 2026-03-17T19:27:13.521024
MEAN_MOTION    = 15.80949799
ECCENTRICITY   = .00009511
INCLINATION    = 97.2887
RA_OF_ASC_NODE = 9.6295
ARG_OF_PERICENTER = 141.4097
MEAN_ANOMALY   = 218.7239

EPHEMERIS_TYPE = 0
CLASSIFICATION_TYPE = U
NORAD_CAT_ID   = 67888
ELEMENT_SET_NO = 999
REV_AT_EPOCH   = 512
BSTAR          = .18402126E-2
MEAN_MOTION_DOT = .369978E-2
MEAN_MOTION_DDOT = 0

CCSDS_OMM_VERS = 2.0
CREATION_DATE  = 
ORIGINATOR     = 

OBJECT_NAME    = STARLINK-36372
OBJECT_ID      = 2026-035L
CENTER_NAME    = EARTH
REF_FRAME      = TEME
TIME_SYSTEM    = UTC
MEAN_ELEMENT_THEORY = SGP/SGP4

EPOCH          = 2026-03-17T20:56:13.486848
MEAN_MOTION    = 15.80894746
ECCENTRICITY   = .0001989
INCLINATION    = 97.2914
RA_OF_ASC_NODE = 9.6972
ARG_OF_PERICENTER = 91.1868
MEAN_ANOMALY   = 268.9628

EPHEMERIS_TYPE = 0
CLASSIFICATION_TYPE = U
NORAD_CAT_ID   = 67889
ELEMENT_SET_NO = 999
REV_AT_EPOCH   = 513
BSTAR          = .10739156E-2
MEAN_MOTION_DOT = .211389E-2
MEAN_MOTION_DDOT = 0

CCSDS_OMM_VERS = 2.0
CREATION_DATE  = 
ORIGINATOR     = 

OBJECT_NAME    = STARLINK-36363
OBJECT_ID      = 2026-035M
CENTER_NAME    = EARTH
REF_FRAME      = TEME
TIME_SYSTEM    = UTC
MEAN_ELEMENT_THEORY = SGP/SGP4

EPOCH          = 2026-03-17T22:00:03.000096
MEAN_MOTION    = 15.75266149
ECCENTRICITY   = .00013725
INCLINATION    = 97.2864
RA_OF_ASC_NODE = 9.7254
ARG_OF_PERICENTER = 93.1559
MEAN_ANOMALY   = 102.1102

EPHEMERIS_TYPE = 0
CLASSIFICATION_TYPE = U
NORAD_CAT_ID   = 67890
ELEMENT_SET_NO = 999
REV_AT_EPOCH   = 508
BSTAR          = -.11555859E-2
MEAN_MOTION_DOT = -.169677E-2
MEAN_MOTION_DDOT = 0

CCSDS_OMM_VERS = 2.0
CREATION_DATE  = 
ORIGINATOR     = 

OBJECT_NAME    = STARLINK-36816
OBJECT_ID      = 2026-035N
CENTER_NAME    = EARTH
REF_FRAME      = TEME
TIME_SYSTEM    = UTC
MEAN_ELEMENT_THEORY = SGP/SGP4

EPOCH          = 2026-03-17T19:10:59.899296
MEAN_MOTION    = 15.80898171
ECCENTRICITY   = .00011818
INCLINATION    = 97.2903
RA_OF_ASC_NODE = 9.6409
ARG_OF_PERICENTER = 123.6093
MEAN_ANOMALY   = 236.5288

EPHEMERIS_TYPE = 0
CLASSIFICATION_TYPE = U
NORAD_CAT_ID   = 67891
ELEMENT_SET_NO = 999
REV_AT_EPOCH   = 512
BSTAR          = .1177905E-2
MEAN_MOTION_DOT = .232468E-2
MEAN_MOTION_DDOT = 0

CCSDS_OMM_VERS = 2.0
CREATION_DATE  = 
ORIGINATOR     = 

OBJECT_NAME    = STARLINK-36813
OBJECT_ID      = 2026-035P
CENTER_NAME    = EARTH
REF_FRAME      = TEME
TIME_SYSTEM    = UTC
MEAN_ELEMENT_THEORY = SGP/SGP4

EPOCH          = 2026-03-17T17:46:20.070912
MEAN_MOTION    = 15.80928935
ECCENTRICITY   = .00011473
INCLINATION    = 97.2909
RA_OF_ASC_NODE = 9.5662
ARG_OF_PERICENTER = 112.6602
MEAN_ANOMALY   = 247.4787

EPHEMERIS_TYPE = 0
CLASSIFICATION_TYPE = U
NORAD_CAT_ID   = 67892
ELEMENT_SET_NO = 999
REV_AT_EPOCH   = 511
BSTAR          = .13526489E-2
MEAN_MOTION_DOT = .268469E-2
MEAN_MOTION_DDOT = 0

