STARLINK-36808          
1 67881U 26035C   26076.81658798  .00290505  00000+0  14627-2 0  9991
2 67881  97.2865   9.6236 0001110 152.7389 207.3938 15.80887109  5120
STARLINK-36817          
1 67882U 26035D   26076.81433723  .00314102  00000+0  15774-2 0  9995
2 67882  97.2893   9.6262 0001901 130.5188 229.6246 15.80883180  5124
STARLINK-36856          
1 67883U 26035E   26076.81508207  .00236296  00000+0  11960-2 0  9996
2 67883  97.2884   9.6252 0001533 126.4228 233.7182 15.80911368  5129
STARLINK-36842          
1 67884U 26035F   26076.91670139 -.00113278  00000+0 -76903-3 0  9997
2 67884  97.2866   9.7146 0001269  98.5274  64.8881 15.75179981  5084
STARLINK-36826          
1 67885U 26035G   26076.91670139 -.00020339  00000+0 -13585-3 0  9990
2 67885  97.2855   9.7329 0000982  93.2090 120.0784 15.75183972  5087
STARLINK-36390          
1 67886U 26035H   26076.91670139 -.00178971  00000+0 -12199-2 0  9996
2 67886  97.2861   9.7171 0001522 105.7581  69.5068 15.75271405  5132
STARLINK-36368          
1 67887U 26035J   26076.81132938  .00126500  00000+0  65002-3 0  9997
2 67887  97.2895   9.6289 0001360  73.3034 286.8384 15.80869985  5128
STARLINK-36801          
1 67888U 26035K   26076.81057316  .00369978  00000+0  18402-2 0  9993
2 67888  97.2887   9.6295 0000951 141.4097 218.7239 15.80949799  5123
STARLINK-36372          
1 67889U 26035L   26076.87237832  .00211389  00000+0  10739-2 0  9990
2 67889  97.2914   9.6972 0001989  91.1868 268.9628 15.80894746  5137
STARLINK-36363          
1 67890U 26035M   26076.91670139 -.00169677  00000+0 -11556-2 0  9990
2 67890  97.2864   9.7254 0001372  93.1559 102.1102 15.75266149  5086
STARLINK-36816          
1 67891U 26035N   26076.79930439  .00232468  00000+0  11779-2 0  9993
2 67891  97.2903   9.6409 0001181 123.6093 236.5288 15.80898171  5126
STARLINK-36813          
1 67892U 26035P   26076.74051008  .00268469  00000+0  13526-2 0  9997
2 67892  97.2909   9.5662 0001147 112.6602 247.4787 15.80928935  5115
